OBJECT_NAME,OBJECT_ID,EPOCH,MEAN_MOTION,ECCENTRICITY,INCLINATION,RA_OF_ASC_NODE,ARG_OF_PERICENTER,MEAN_ANOMALY,EPHEMERIS_TYPE,CLASSIFICATION_TYPE,NORAD_CAT_ID,ELEMENT_SET_NO,REV_AT_EPOCH,BSTAR,MEAN_MOTION_DOT,MEAN_MOTION_DDOT
ONEWEB-0053,2020-008AC,2026-07-14T14:41:45.171168,13.10371046,.0001481,87.8813,30.8174,77.1002,283.0290,0,U,45157,999,31150,.18302E-2,.652E-5,0
ONEWEB-0054,2020-008AD,2026-07-14T13:43:05.786400,13.10375308,.0001872,87.8818,30.8114,86.1414,273.9927,0,U,45158,999,31161,-.18629E-2,-.638E-5,0
ONEWEB-0056,2020-008AE,2026-07-14T14:51:19.204992,13.10370094,.000209,87.8820,30.7950,85.6883,274.4483,0,U,45159,999,31177,.12399E-2,.445E-5,0
ONEWEB-0057,2020-008AF,2026-07-14T13:26:10.944960,13.10369723,.0001556,87.8816,30.8185,72.4228,287.7069,0,U,45160,999,31193,-.10673E-2,-.36E-5,0
ONEWEB-0058,2020-008AG,2026-07-14T14:57:07.636320,13.10371269,.0001864,87.8810,30.8099,95.5472,264.5868,0,U,45161,999,31201,.79144E-3,.289E-5,0
ONEWEB-0059,2020-008AH,2026-07-14T13:01:48.136800,13.10369671,.00015672,87.8811,30.8250,88.4932,271.6375,0,U,45162,999,31190,.15906847E-2,.568E-5,0
ONEWEB-0062,2020-008AJ,2026-07-14T13:35:33.472032,13.10370758,.0002055,87.8820,30.8102,95.1611,264.9751,0,U,45163,999,31177,-.1666E-2,-.569E-5,0
ONEWEB-0065,2020-008AK,2026-07-14T14:24:26.472960,13.10377846,.0001829,87.8823,30.8112,77.2766,282.8566,0,U,45164,999,31147,.14681E-2,.525E-5,0
ONEWEB-0066,2020-020A,2026-07-14T12:53:35.455488,13.11422067,.00017269,87.8881,15.6240,94.1884,265.9441,0,U,45424,999,30626,-.11820456E-2,-.406E-5,0
ONEWEB-0067,2020-020B,2026-07-14T13:47:56.359104,13.11423923,.0001735,87.8903,15.5438,86.0085,274.1242,0,U,45425,999,30632,.12546E-2,.457E-5,0
ONEWEB-0080,2020-020C,2026-07-14T13:47:33.387072,13.11414894,.0002047,87.8894,15.6161,97.2957,262.8404,0,U,45426,999,30629,.10885E-2,.398E-5,0
ONEWEB-0090,2020-020D,2026-07-14T12:39:09.813888,13.11416788,.00019035,87.8893,15.6297,92.1781,267.9565,0,U,45427,999,30625,-.14892982E-2,-.515E-5,0
ONEWEB-0061,2020-020E,2026-07-14T13:25:10.216128,13.11418227,.0001849,87.8891,15.6074,92.2818,267.8522,0,U,45428,999,30621,.13062E-2,.476E-5,0
ONEWEB-0081,2020-020F,2026-07-14T12:58:30.012960,13.11418746,.0001642,87.8889,15.6205,89.5062,270.6254,0,U,45429,999,30632,-.75753E-3,-.256E-5,0
ONEWEB-0069,2020-020G,2026-07-14T13:01:08.321088,13.11420549,.000164,87.8889,15.6234,92.5028,267.6288,0,U,45430,999,30625,-.69853E-3,-.235E-5,0
ONEWEB-0031,2020-020H,2026-07-14T13:52:15.002688,13.11416115,.0001977,87.8880,15.6193,94.2494,265.8859,0,U,45431,999,30624,.91033E-3,.335E-5,0
ONEWEB-0027,2020-020J,2026-07-14T19:49:14.196000,13.17649493,.0002272,87.9146,0.3668,94.0725,266.0666,0,U,45432,999,30999,.12937E-2,.515E-5,0
ONEWEB-0064,2020-020K,2026-07-14T13:49:47.078112,13.11414822,.0002022,87.8884,15.6127,92.2107,267.9253,0,U,45433,999,30627,.11038E-2,.404E-5,0
ONEWEB-0018,2020-020L,2026-07-14T12:46:04.933920,13.11417193,.00016365,87.8885,15.6209,101.9035,258.2276,0,U,45434,999,30621,-.1485376E-2,-.514E-5,0
ONEWEB-0083,2020-020M,2026-07-14T12:31:50.389536,13.11416331,.0001884,87.8890,15.6183,92.7785,267.3559,0,U,45435,999,30625,-.12268049E-2,-.422E-5,0
ONEWEB-0095,2020-020N,2026-07-14T12:19:38.170272,13.11414613,.00023286,87.8890,15.6284,77.5911,282.5478,0,U,45436,999,30625,-.31460391E-3,-.99E-6,0
ONEWEB-0092,2020-020P,2026-07-14T13:03:35.665056,13.11415952,.0001715,87.8891,15.6133,96.2509,263.8814,0,U,45437,999,30637,-.45054E-3,-.147E-5,0
ONEWEB-0085,2020-020Q,2026-07-14T12:31:26.529312,13.11416233,.00018687,87.8883,15.6233,90.0957,270.0385,0,U,45438,999,30625,-.10936441E-2,-.375E-5,0
ONEWEB-0096,2020-020R,2026-07-14T12:34:04.646496,13.11415800,.00019467,87.8888,15.6203,88.2412,271.8938,0,U,45439,999,30624,-.10770918E-2,-.369E-5,0
ONEWEB-0037,2020-020S,2026-07-14T13:11:54.877344,13.11417065,.000197,87.8901,15.5880,86.6123,273.5231,0,U,45440,999,30628,.59479E-5,.15E-6,0
ONEWEB-0042,2020-020T,2026-07-14T12:19:14.722176,13.11415206,.00017459,87.8889,15.6189,90.1456,269.9872,0,U,45441,999,30624,-.38563132E-3,-.124E-5,0
ONEWEB-0098,2020-020U,2026-07-14T12:13:19.954272,13.11413685,.00018783,87.8887,15.6285,92.4706,267.6637,0,U,45442,999,30622,.10750084E-4,.16E-6,0
ONEWEB-0055,2020-020V,2026-07-14T13:32:30.380928,13.11417267,.0001934,87.8889,15.6164,92.7014,267.4336,0,U,45443,999,30620,.16103E-2,.583E-5,0
ONEWEB-0093,2020-020W,2026-07-14T13:13:20.077248,13.10895282,.0001536,87.8893,15.6155,88.0288,272.1016,0,U,45444,999,30626,.4731E-3,.179E-5,0
ONEWEB-0029,2020-020X,2026-07-14T13:42:40.413312,13.11415363,.0001599,87.8883,15.6154,93.2008,266.9302,0,U,45445,999,30624,.13944E-2,.507E-5,0
