[
  {
    "name": "ONEWEB-0053",
    "noradId": "45157",
    "line1": "1 45157U 20008AC  26195.61232837  .00000652  00000+0  18302-2 0  9995",
    "line2": "2 45157  87.8813  30.8174 0001481  77.1002 283.0290 13.10371046311503"
  },
  {
    "name": "ONEWEB-0054",
    "noradId": "45158",
    "line1": "1 45158U 20008AD  26195.57159475 -.00000638  00000+0 -18629-2 0  9995",
    "line2": "2 45158  87.8818  30.8114 0001872  86.1414 273.9927 13.10375308311616"
  },
  {
    "name": "ONEWEB-0056",
    "noradId": "45159",
    "line1": "1 45159U 20008AE  26195.61897228  .00000445  00000+0  12399-2 0  9998",
    "line2": "2 45159  87.8820  30.7950 0002090  85.6883 274.4483 13.10370094311771"
  },
  {
    "name": "ONEWEB-0057",
    "noradId": "45160",
    "line1": "1 45160U 20008AF  26195.55984890 -.00000360  00000+0 -10673-2 0  9996",
    "line2": "2 45160  87.8816  30.8185 0001556  72.4228 287.7069 13.10369723311934"
  },
  {
    "name": "ONEWEB-0058",
    "noradId": "45161",
    "line1": "1 45161U 20008AG  26195.62300505  .00000289  00000+0  79144-3 0  9997",
    "line2": "2 45161  87.8810  30.8099 0001864  95.5472 264.5868 13.10371269312010"
  },
  {
    "name": "ONEWEB-0059",
    "noradId": "45162",
    "line1": "1 45162U 20008AH  26195.54291825  .00000568  00000+0  15907-2 0  9999",
    "line2": "2 45162  87.8811  30.8250 0001567  88.4932 271.6375 13.10369671311906"
  },
  {
    "name": "ONEWEB-0062",
    "noradId": "45163",
    "line1": "1 45163U 20008AJ  26195.56635963 -.00000569  00000+0 -16660-2 0  9997",
    "line2": "2 45163  87.8820  30.8102 0002055  95.1611 264.9751 13.10370758311771"
  },
  {
    "name": "ONEWEB-0065",
    "noradId": "45164",
    "line1": "1 45164U 20008AK  26195.60030640  .00000525  00000+0  14681-2 0  9995",
    "line2": "2 45164  87.8823  30.8112 0001829  77.2766 282.8566 13.10377846311471"
  },
  {
    "name": "ONEWEB-0066",
    "noradId": "45424",
    "line1": "1 45424U 20020A   26195.53721592 -.00000406  00000+0 -11820-2 0  9995",
    "line2": "2 45424  87.8881  15.6240 0001726  94.1884 265.9441 13.11422067306264"
  },
  {
    "name": "ONEWEB-0067",
    "noradId": "45425",
    "line1": "1 45425U 20020B   26195.57495786  .00000457  00000+0  12546-2 0  9993",
    "line2": "2 45425  87.8903  15.5438 0001735  86.0085 274.1242 13.11423923306321"
  },
  {
    "name": "ONEWEB-0080",
    "noradId": "45426",
    "line1": "1 45426U 20020C   26195.57469198  .00000398  00000+0  10885-2 0  9990",
    "line2": "2 45426  87.8894  15.6161 0002047  97.2957 262.8404 13.11414894306291"
  },
  {
    "name": "ONEWEB-0090",
    "noradId": "45427",
    "line1": "1 45427U 20020D   26195.52719692 -.00000515  00000+0 -14893-2 0  9999",
    "line2": "2 45427  87.8893  15.6297 0001903  92.1781 267.9565 13.11416788306254"
  },
  {
    "name": "ONEWEB-0061",
    "noradId": "45428",
    "line1": "1 45428U 20020E   26195.55914602  .00000476  00000+0  13062-2 0  9992",
    "line2": "2 45428  87.8891  15.6074 0001849  92.2818 267.8522 13.11418227306215"
  },
  {
    "name": "ONEWEB-0081",
    "noradId": "45429",
    "line1": "1 45429U 20020F   26195.54062515 -.00000256  00000+0 -75753-3 0  9993",
    "line2": "2 45429  87.8889  15.6205 0001642  89.5062 270.6254 13.11418746306322"
  },
  {
    "name": "ONEWEB-0069",
    "noradId": "45430",
    "line1": "1 45430U 20020G   26195.54245742 -.00000235  00000+0 -69853-3 0  9991",
    "line2": "2 45430  87.8889  15.6234 0001640  92.5028 267.6288 13.11420549306259"
  },
  {
    "name": "ONEWEB-0031",
    "noradId": "45431",
    "line1": "1 45431U 20020H   26195.57795142  .00000335  00000+0  91033-3 0  9993",
    "line2": "2 45431  87.8880  15.6193 0001977  94.2494 265.8859 13.11416115306241"
  },
  {
    "name": "ONEWEB-0027",
    "noradId": "45432",
    "line1": "1 45432U 20020J   26195.82585875  .00000515  00000+0  12937-2 0  9997",
    "line2": "2 45432  87.9146   0.3668 0002272  94.0725 266.0666 13.17649493309997"
  },
  {
    "name": "ONEWEB-0064",
    "noradId": "45433",
    "line1": "1 45433U 20020K   26195.57623933  .00000404  00000+0  11038-2 0  9996",
    "line2": "2 45433  87.8884  15.6127 0002022  92.2107 267.9253 13.11414822306272"
  },
  {
    "name": "ONEWEB-0018",
    "noradId": "45434",
    "line1": "1 45434U 20020L   26195.53200155 -.00000514  00000+0 -14854-2 0  9993",
    "line2": "2 45434  87.8885  15.6209 0001636 101.9035 258.2276 13.11417193306219"
  },
  {
    "name": "ONEWEB-0083",
    "noradId": "45435",
    "line1": "1 45435U 20020M   26195.52211099 -.00000422  00000+0 -12268-2 0  9997",
    "line2": "2 45435  87.8890  15.6183 0001884  92.7785 267.3559 13.11416331306253"
  },
  {
    "name": "ONEWEB-0095",
    "noradId": "45436",
    "line1": "1 45436U 20020N   26195.51363623 -.00000099  00000+0 -31460-3 0  9994",
    "line2": "2 45436  87.8890  15.6284 0002328  77.5911 282.5478 13.11414613306252"
  },
  {
    "name": "ONEWEB-0092",
    "noradId": "45437",
    "line1": "1 45437U 20020P   26195.54416279 -.00000147  00000+0 -45054-3 0  9992",
    "line2": "2 45437  87.8891  15.6133 0001715  96.2509 263.8814 13.11415952306373"
  },
  {
    "name": "ONEWEB-0085",
    "noradId": "45438",
    "line1": "1 45438U 20020Q   26195.52183483 -.00000375  00000+0 -10936-2 0  9992",
    "line2": "2 45438  87.8883  15.6233 0001868  90.0957 270.0385 13.11416233306257"
  },
  {
    "name": "ONEWEB-0096",
    "noradId": "45439",
    "line1": "1 45439U 20020R   26195.52366489 -.00000369  00000+0 -10771-2 0  9992",
    "line2": "2 45439  87.8888  15.6203 0001946  88.2412 271.8938 13.11415800306243"
  },
  {
    "name": "ONEWEB-0037",
    "noradId": "45440",
    "line1": "1 45440U 20020S   26195.54994071  .00000015  00000+0  59479-5 0  9997",
    "line2": "2 45440  87.8901  15.5880 0001970  86.6123 273.5231 13.11417065306283"
  },
  {
    "name": "ONEWEB-0042",
    "noradId": "45441",
    "line1": "1 45441U 20020T   26195.51336484 -.00000124  00000+0 -38563-3 0  9995",
    "line2": "2 45441  87.8889  15.6189 0001745  90.1456 269.9872 13.11415206306242"
  },
  {
    "name": "ONEWEB-0098",
    "noradId": "45442",
    "line1": "1 45442U 20020U   26195.50925873  .00000016  00000+0  10750-4 0  9998",
    "line2": "2 45442  87.8887  15.6285 0001878  92.4706 267.6637 13.11413685306229"
  },
  {
    "name": "ONEWEB-0055",
    "noradId": "45443",
    "line1": "1 45443U 20020V   26195.56424052  .00000583  00000+0  16103-2 0  9993",
    "line2": "2 45443  87.8889  15.6164 0001934  92.7014 267.4336 13.11417267306208"
  },
  {
    "name": "ONEWEB-0093",
    "noradId": "45444",
    "line1": "1 45444U 20020W   26195.55092682  .00000179  00000+0  47310-3 0  9999",
    "line2": "2 45444  87.8893  15.6155 0001536  88.0288 272.1016 13.10895282306263"
  },
  {
    "name": "ONEWEB-0029",
    "noradId": "45445",
    "line1": "1 45445U 20020X   26195.57130108  .00000507  00000+0  13944-2 0  9998",
    "line2": "2 45445  87.8883  15.6154 0001599  93.2008 266.9302 13.11415363306245"
  }
]